{"type": "FeatureCollection", "features": [ {"type": "Feature", "properties": {"norad_id": 43058, "name": "GSAT0218 (GALILEO 22)", "group": "galileo", "lat": -33.6297981093727, "lon": 74.20603026949696, "alt_km": 23225.474990452745, "timestamp": "2025-12-14T03:55:53.050718+00:00", "meta": {"OBJECT_NAME": "GSAT0218 (GALILEO 22)", "OBJECT_ID": "2017-079D", "EPOCH": "2025-12-12T15:04:31.769472", "MEAN_MOTION": 1.70474063, "ECCENTRICITY": 0.00028411, "INCLINATION": 55.1287, "RA_OF_ASC_NODE": 226.6365, "ARG_OF_PERICENTER": 306.3289, "MEAN_ANOMALY": 53.7237, "EPHEMERIS_TYPE": 0, "CLASSIFICATION_TYPE": "U", "NORAD_CAT_ID": 43058, "ELEMENT_SET_NO": 999, "REV_AT_EPOCH": 4983, "BSTAR": 0, "MEAN_MOTION_DOT": 1.7e-07, "MEAN_MOTION_DDOT": 0}, "tle": {"line1": "1 43058U 17079D   25346.62814548  .00000017  00000+0  00000+0 0  9998", "line2": "2 43058  55.1287 226.6365 0002841 306.3289  53.7237  1.70474063 49839"}}, "geometry": {"type": "Point", "coordinates": [74.20603026949696, -33.6297981093727]}}, {"type": "Feature", "properties": {"norad_id": 43564, "name": "GSAT0221 (GALILEO 25)", "group": "galileo", "lat": -55.258747561862066, "lon": -81.49869704764787, "alt_km": 23208.024706511038, "timestamp": "2025-12-14T03:55:53.050730+00:00", "meta": {"OBJECT_NAME": "GSAT0221 (GALILEO 25)", "OBJECT_ID": "2018-060A", "EPOCH": "2025-12-10T18:30:15.067872", "MEAN_MOTION": 1.70475777, "ECCENTRICITY": 0.0006715, "INCLINATION": 57.2282, "RA_OF_ASC_NODE": 346.8706, "ARG_OF_PERICENTER": 282.7382, "MEAN_ANOMALY": 77.2035, "EPHEMERIS_TYPE": 0, "CLASSIFICATION_TYPE": "U", "NORAD_CAT_ID": 43564, "ELEMENT_SET_NO": 999, "REV_AT_EPOCH": 4595, "BSTAR": 0, "MEAN_MOTION_DOT": -8.7e-07, "MEAN_MOTION_DDOT": 0}, "tle": {"line1": "1 43564U 18060A   25344.77100773 -.00000087  00000+0  00000+0 0  9991", "line2": "2 43564  57.2282 346.8706 0006715 282.7382  77.2035  1.70475777 45957"}}, "geometry": {"type": "Point", "coordinates": [-81.49869704764787, -55.258747561862066]}}, {"type": "Feature", "properties": {"norad_id": 43565, "name": "GSAT0222 (GALILEO 26)", "group": "galileo", "lat": 26.82737232435539, "lon": 147.76915100712745, "alt_km": 23226.78648196567, "timestamp": "2025-12-14T03:55:53.050741+00:00", "meta": {"OBJECT_NAME": "GSAT0222 (GALILEO 26)", "OBJECT_ID": "2018-060B", "EPOCH": "2025-12-11T13:50:46.646592", "MEAN_MOTION": 1.70475594, "ECCENTRICITY": 0.00061469, "INCLINATION": 57.2316, "RA_OF_ASC_NODE": 346.8519, "ARG_OF_PERICENTER": 263.5274, "MEAN_ANOMALY": 96.42, "EPHEMERIS_TYPE": 0, "CLASSIFICATION_TYPE": "U", "NORAD_CAT_ID": 43565, "ELEMENT_SET_NO": 999, "REV_AT_EPOCH": 4601, "BSTAR": 0, "MEAN_MOTION_DOT": -8.7e-07, "MEAN_MOTION_DDOT": 0}, "tle": {"line1": "1 43565U 18060B   25345.57692878 -.00000087  00000+0  00000+0 0  9993", "line2": "2 43565  57.2316 346.8519 0006146 263.5274  96.4200  1.70475594 46015"}}, "geometry": {"type": "Point", "coordinates": [147.76915100712745, 26.82737232435539]}}, {"type": "Feature", "properties": {"norad_id": 43566, "name": "GSAT0219 (GALILEO 23)", "group": "galileo", "lat": 9.984499241304535, "lon": -6.705020375710676, "alt_km": 23219.37081035388, "timestamp": "2025-12-14T03:55:53.050751+00:00", "meta": {"OBJECT_NAME": "GSAT0219 (GALILEO 23)", "OBJECT_ID": "2018-060C", "EPOCH": "2025-12-12T23:18:35.949024", "MEAN_MOTION": 1.70475808, "ECCENTRICITY": 0.00058128, "INCLINATION": 57.2304, "RA_OF_ASC_NODE": 346.8158, "ARG_OF_PERICENTER": 287.2893, "MEAN_ANOMALY": 72.6656, "EPHEMERIS_TYPE": 0, "CLASSIFICATION_TYPE": "U", "NORAD_CAT_ID": 43566, "ELEMENT_SET_NO": 999, "REV_AT_EPOCH": 4601, "BSTAR": 0, "MEAN_MOTION_DOT": -8.6e-07, "MEAN_MOTION_DDOT": 0}, "tle": {"line1": "1 43566U 18060C   25346.97124941 -.00000086  00000+0  00000+0 0  9999", "line2": "2 43566  57.2304 346.8158 0005812 287.2893  72.6656  1.70475808 46010"}}, "geometry": {"type": "Point", "coordinates": [-6.705020375710676, 9.984499241304535]}}, {"type": "Feature", "properties": {"norad_id": 43567, "name": "GSAT0220 (GALILEO 24)", "group": "galileo", "lat": -44.330713610749775, "lon": -154.2174344551785, "alt_km": 23214.94301531903, "timestamp": "2025-12-14T03:55:53.050762+00:00", "meta": {"OBJECT_NAME": "GSAT0220 (GALILEO 24)", "OBJECT_ID": "2018-060D", "EPOCH": "2025-12-10T20:18:00.212256", "MEAN_MOTION": 1.70475727, "ECCENTRICITY": 0.0006125, "INCLINATION": 57.2305, "RA_OF_ASC_NODE": 346.8727, "ARG_OF_PERICENTER": 283.9956, "MEAN_ANOMALY": 75.9532, "EPHEMERIS_TYPE": 0, "CLASSIFICATION_TYPE": "U", "NORAD_CAT_ID": 43567, "ELEMENT_SET_NO": 999, "REV_AT_EPOCH": 4596, "BSTAR": 0, "MEAN_MOTION_DOT": -8.7e-07, "MEAN_MOTION_DDOT": 0}, "tle": {"line1": "1 43567U 18060D   25344.84583579 -.00000087  00000+0  00000+0 0  9991", "line2": "2 43567  57.2305 346.8727 0006125 283.9956  75.9532  1.70475727 45967"}}, "geometry": {"type": "Point", "coordinates": [-154.2174344551785, -44.330713610749775]}}, {"type": "Feature", "properties": {"norad_id": 49809, "name": "GSAT0223 (GALILEO 27)", "group": "galileo", "lat": -27.208745472209934, "lon": -32.67640332262841, "alt_km": 23222.0790149235, "timestamp": "2025-12-14T03:55:53.050773+00:00", "meta": {"OBJECT_NAME": "GSAT0223 (GALILEO 27)", "OBJECT_ID": "2021-116A", "EPOCH": "2025-12-10T02:39:25.687008", "MEAN_MOTION": 1.70475768, "ECCENTRICITY": 0.000463, "INCLINATION": 57.2198, "RA_OF_ASC_NODE": 346.7831, "ARG_OF_PERICENTER": 251.6037, "MEAN_ANOMALY": 107.9349, "EPHEMERIS_TYPE": 0, "CLASSIFICATION_TYPE": "U", "NORAD_CAT_ID": 49809, "ELEMENT_SET_NO": 999, "REV_AT_EPOCH": 2495, "BSTAR": 0, "MEAN_MOTION_DOT": -8.7e-07, "MEAN_MOTION_DDOT": 0}, "tle": {"line1": "1 49809U 21116A   25344.11071397 -.00000087  00000+0  00000+0 0  9992", "line2": "2 49809  57.2198 346.7831 0004630 251.6037 107.9349  1.70475768 24951"}}, "geometry": {"type": "Point", "coordinates": [-32.67640332262841, -27.208745472209934]}}, {"type": "Feature", "properties": {"norad_id": 49810, "name": "GSAT0224 (GALILEO 28)", "group": "galileo", "lat": 55.76837537361731, "lon": 57.95961333538567, "alt_km": 23227.226411721924, "timestamp": "2025-12-14T03:55:53.050784+00:00", "meta": {"OBJECT_NAME": "GSAT0224 (GALILEO 28)", "OBJECT_ID": "2021-116B", "EPOCH": "2025-12-10T19:26:19.690368", "MEAN_MOTION": 1.70475895, "ECCENTRICITY": 0.000393, "INCLINATION": 57.2205, "RA_OF_ASC_NODE": 346.7629, "ARG_OF_PERICENTER": 256.2791, "MEAN_ANOMALY": 284.9883, "EPHEMERIS_TYPE": 0, "CLASSIFICATION_TYPE": "U", "NORAD_CAT_ID": 49810, "ELEMENT_SET_NO": 999, "REV_AT_EPOCH": 2499, "BSTAR": 0, "MEAN_MOTION_DOT": -8.7e-07, "MEAN_MOTION_DDOT": 0}, "tle": {"line1": "1 49810U 21116B   25344.80995012 -.00000087  00000+0  00000+0 0  9999", "line2": "2 49810  57.2205 346.7629 0003930 256.2791 284.9883  1.70475895 24991"}}, "geometry": {"type": "Point", "coordinates": [57.95961333538567, 55.76837537361731]}}, {"type": "Feature", "properties": {"norad_id": 59598, "name": "GSAT0225 (GALILEO 29)", "group": "galileo", "lat": 51.228017945061445, "lon": 166.87149901679746, "alt_km": 23217.55530026978, "timestamp": "2025-12-14T03:55:53.050796+00:00", "meta": {"OBJECT_NAME": "GSAT0225 (GALILEO 29)", "OBJECT_ID": "2024-079A", "EPOCH": "2025-12-10T12:47:07.958400", "MEAN_MOTION": 1.70474727, "ECCENTRICITY": 0.00020453, "INCLINATION": 55.0006, "RA_OF_ASC_NODE": 106.3566, "ARG_OF_PERICENTER": 176.2356, "MEAN_ANOMALY": 187.363, "EPHEMERIS_TYPE": 0, "CLASSIFICATION_TYPE": "U", "NORAD_CAT_ID": 59598, "ELEMENT_SET_NO": 999, "REV_AT_EPOCH": 1010, "BSTAR": 0, "MEAN_MOTION_DOT": 1e-07, "MEAN_MOTION_DDOT": 0}, "tle": {"line1": "1 59598U 24079A   25344.53273100  .00000010  00000+0  00000+0 0  9996", "line2": "2 59598  55.0006 106.3566 0002045 176.2356 187.3630  1.70474727 10101"}}, "geometry": {"type": "Point", "coordinates": [166.87149901679746, 51.228017945061445]}}, {"type": "Feature", "properties": {"norad_id": 59600, "name": "GSAT0227 (GALILEO 30)", "group": "galileo", "lat": -32.089477303777855, "lon": 80.20145740845854, "alt_km": 23234.85374548831, "timestamp": "2025-12-14T03:55:53.050807+00:00", "meta": {"OBJECT_NAME": "GSAT0227 (GALILEO 30)", "OBJECT_ID": "2024-079C", "EPOCH": "2025-12-08T22:48:42.234912", "MEAN_MOTION": 1.70474719, "ECCENTRICITY": 0.0003262, "INCLINATION": 54.9946, "RA_OF_ASC_NODE": 106.4003, "ARG_OF_PERICENTER": 114.182, "MEAN_ANOMALY": 245.816, "EPHEMERIS_TYPE": 0, "CLASSIFICATION_TYPE": "U", "NORAD_CAT_ID": 59600, "ELEMENT_SET_NO": 999, "REV_AT_EPOCH": 1012, "BSTAR": 0, "MEAN_MOTION_DOT": 9e-08, "MEAN_MOTION_DDOT": 0}, "tle": {"line1": "1 59600U 24079C   25342.95048883  .00000009  00000+0  00000+0 0  9990", "line2": "2 59600  54.9946 106.4003 0003262 114.1820 245.8160  1.70474719 10123"}}, "geometry": {"type": "Point", "coordinates": [80.20145740845854, -32.089477303777855]}}, {"type": "Feature", "properties": {"norad_id": 61182, "name": "GSAT0232 (GALILEO 32)", "group": "galileo", "lat": 21.095033294606573, "lon": 30.875735713511, "alt_km": 23216.639229775446, "timestamp": "2025-12-14T03:55:53.050818+00:00", "meta": {"OBJECT_NAME": "GSAT0232 (GALILEO 32)", "OBJECT_ID": "2024-167A", "EPOCH": "2025-12-12T10:51:18.741600", "MEAN_MOTION": 1.70473504, "ECCENTRICITY": 0.00019431, "INCLINATION": 55.2408, "RA_OF_ASC_NODE": 226.4386, "ARG_OF_PERICENTER": 211.6313, "MEAN_ANOMALY": 332.0573, "EPHEMERIS_TYPE": 0, "CLASSIFICATION_TYPE": "U", "NORAD_CAT_ID": 61182, "ELEMENT_SET_NO": 999, "REV_AT_EPOCH": 769, "BSTAR": 0, "MEAN_MOTION_DOT": 1.6e-07, "MEAN_MOTION_DDOT": 0}, "tle": {"line1": "1 61182U 24167A   25346.45230025  .00000016  00000+0  00000+0 0  9994", "line2": "2 61182  55.2408 226.4386 0001943 211.6313 332.0573  1.70473504  7695"}}, "geometry": {"type": "Point", "coordinates": [30.875735713511, 21.095033294606573]}}]}